H1 CPF  1  MCC 2022 12 12 15  8461 larets
H2  0304206 5557    27944 2022 12 11 23 45 00 2022 12 16 23 57 00   180 1 1  0 0 0
H9
10 0 59927 10620.000000 0     -3467781.108      1521338.672     -5978268.460
10 0 59927 10800.000000 0     -2243704.030      1414063.099     -6561727.441
10 0 59927 10980.000000 0      -942779.273      1222746.513     -6907272.907
10 0 59927 11160.000000 0       386009.072       952933.367     -7002555.748
10 0 59927 11340.000000 0      1692930.297       614254.261     -6844150.567
10 0 59927 11520.000000 0      2929313.344       220092.013     -6437672.672
10 0 59927 11700.000000 0      4049314.137      -212925.003     -5797606.855
10 0 59927 11880.000000 0      5011590.082      -665588.552     -4946852.228
10 0 59927 12060.000000 0      5780837.670     -1116917.150     -3915988.056
10 0 59927 12240.000000 0      6329139.055     -1545078.273     -2742255.931
10 0 59927 12420.000000 0      6637052.875     -1928390.968     -1468274.926
10 0 59927 12600.000000 0      6694391.651     -2246364.279      -140520.895
10 0 59927 12780.000000 0      6500635.123     -2480718.634      1192378.648
10 0 59927 12960.000000 0      6064946.008     -2616335.857      2481467.776
10 0 59927 13140.000000 0      5405774.233     -2642084.346      3679320.826
10 0 59927 13320.000000 0      4550065.442     -2551471.131      4741845.601
10 0 59927 13500.000000 0      3532122.407     -2343085.991      5629945.772
10 0 59927 13680.000000 0      2392177.502     -2020818.758      6310981.259
10 0 59927 13860.000000 0      1174746.173     -1593835.965      6759962.291
10 0 59927 14040.000000 0       -73155.558     -1076322.858      6960445.949
10 0 59927 14220.000000 0     -1303857.257      -487000.248      6905113.411
10 0 59927 14400.000000 0     -2470871.432       151564.606      6596020.276
10 0 59927 14580.000000 0     -3530662.961       813830.379      6044521.111
10 0 59927 14760.000000 0     -4444295.340      1472307.508      5270868.513
10 0 59927 14940.000000 0     -5178898.410      2098701.005      4303490.049
10 0 59927 15120.000000 0     -5708896.740      2665128.398      3177954.810
10 0 59927 15300.000000 0     -6016942.042      3145357.879      1935661.182
10 0 59927 15480.000000 0     -6094510.833      3516009.745       622291.435
10 0 59927 15660.000000 0     -5942132.142      3757660.076      -713914.425
10 0 59927 15840.000000 0     -5569230.129      3855784.815     -2023984.523
10 0 59927 16020.000000 0     -4993595.101      3801498.106     -3260060.796
10 0 59927 16200.000000 0     -4240508.953      3592044.615     -4377176.389
10 0 59927 16380.000000 0     -3341585.790      3231027.258     -5334881.502
10 0 59927 16560.000000 0     -2333401.025      2728370.375     -6098658.955
10 0 59927 16740.000000 0     -1255981.519      2100030.581     -6641095.562
10 0 59927 16920.000000 0      -151217.391      1367470.142     -6942783.506
10 0 59927 17100.000000 0       938736.323       556920.413     -6992939.549
10 0 59927 17280.000000 0      1973022.002      -301538.880     -6789748.895
10 0 59927 17460.000000 0      2913567.549     -1175063.634     -6340425.867
10 0 59927 17640.000000 0      3726454.877     -2029261.201     -5660991.703
10 0 59927 17820.000000 0      4383136.179     -2829506.985     -4775773.536
10 0 59927 18000.000000 0      4861460.976     -3542329.793     -3716617.402
10 0 59927 18180.000000 0      5146467.563     -4136809.098     -2521820.657
10 0 59927 18360.000000 0      5230907.575     -4585927.038     -1234804.327
10 0 59927 18540.000000 0      5115466.638     -4867810.962        97444.285
10 0 59927 18720.000000 0      4808655.910     -4966799.508      1426104.953
10 0 59927 18900.000000 0      4326369.407     -4874264.483      2702361.856
10 0 59927 19080.000000 0      3691125.574     -4589139.249      3879256.494
10 0 59927 19260.000000 0      2931032.920     -4118125.364      4913470.905
10 0 59927 19440.000000 0      2078533.044     -3475562.982      5766960.511
10 0 59927 19620.000000 0      1168989.929     -2682974.982      6408368.457
10 0 59927 19800.000000 0       239193.405     -1768309.114      6814168.765
10 0 59927 19980.000000 0      -674151.304      -764918.193      6969504.982
10 0 59927 20160.000000 0     -1535884.924       289682.790      6868712.125
10 0 59927 20340.000000 0     -2313757.314      1355238.362      6515511.563
10 0 59927 20520.000000 0     -2979646.120      2390302.831      5922875.455
10 0 59927 20700.000000 0     -3510589.804      3353867.300      5112566.207
10 0 59927 20880.000000 0     -3889601.970      4207008.027      4114357.970
10 0 59927 21060.000000 0     -4106234.146      4914491.447      2964954.525
10 0 59927 21240.000000 0     -4156859.179      5446265.889      1706631.786
10 0 59927 21420.000000 0     -4044658.968      5778762.399       385652.569
10 0 59927 21600.000000 0     -3779321.688      5895941.888      -949478.381
10 0 59927 21780.000000 0     -3376460.530      5790033.561     -2249853.574
10 0 59927 21960.000000 0     -2856779.956      5461917.121     -3468004.932
10 0 59927 22140.000000 0     -2245043.854      4921140.287     -4559655.008
10 0 59927 22320.000000 0     -1568910.966      4185582.442     -5485307.486
10 0 59927 22500.000000 0      -857698.714      3280799.284     -6211621.147
10 0 59927 22680.000000 0      -141131.873      2239085.145     -6712539.407
10 0 59927 22860.000000 0       551872.374      1098294.032     -6970143.272
10 0 59927 23040.000000 0      1194335.351       -99526.589     -6975223.945
10 0 59927 23220.000000 0      1762233.885     -1309650.686     -6727574.054
10 0 59927 23400.000000 0      2235371.550     -2486293.395     -6235994.461
10 0 59927 23580.000000 0      2598084.976     -3584291.839     -5518025.241
10 0 59927 23760.000000 0      2839767.903     -4560814.206     -4599396.391
10 0 59927 23940.000000 0      2955190.148     -5377034.058     -3513185.192
10 0 59927 24120.000000 0      2944596.699     -5999706.113     -2298704.121
10 0 59927 24300.000000 0      2813580.103     -6402582.373     -1000130.681
10 0 59927 24480.000000 0      2572722.939     -6567588.372       335087.169
10 0 59927 24660.000000 0      2237016.482     -6485685.149      1657990.643
10 0 59927 24840.000000 0      1825084.674     -6157364.548      2919956.623
10 0 59927 25020.000000 0      1358249.213     -5592738.742      4074547.825
10 0 59927 25200.000000 0       859487.515     -4811221.106      5079271.850
10 0 59927 25380.000000 0       352339.563     -3840821.044      5897178.498
10 0 59927 25560.000000 0      -140181.541     -2717081.337      6498230.768
10 0 59927 25740.000000 0      -596618.812     -1481716.168      6860391.496
10 0 59927 25920.000000 0      -997996.128      -181022.291      6970406.547
10 0 59927 26100.000000 0     -1328603.887      1135885.409      6824273.071
10 0 59927 26280.000000 0     -1576616.418      2418950.764      6427375.841
10 0 59927 26460.000000 0     -1734519.215      3619097.579      5794292.838
10 0 59927 26640.000000 0     -1799333.387      4690131.487      4948275.348
10 0 59927 26820.000000 0     -1772630.025      5590556.872      3920414.015
10 0 59927 27000.000000 0     -1660334.190      6285236.101      2748504.287
10 0 59927 27180.000000 0     -1472328.959      6746813.296      1475645.754
10 0 59927 27360.000000 0     -1221873.418      6956835.184       148623.903
10 0 59927 27540.000000 0      -924863.003      6906508.260     -1183857.340
10 0 59927 27720.000000 0      -598973.582      6597053.227     -2473020.952
10 0 59927 27900.000000 0      -262737.229      6039626.146     -3671847.422
10 0 59927 28080.000000 0        65396.327      5254836.215     -4736797.086
10 0 59927 28260.000000 0       367968.998      4271900.954     -5629367.696
10 0 59927 28440.000000 0       629351.648      3127484.752     -6317432.894
10 0 59927 28620.000000 0       836470.582      1864280.789     -6776323.050
10 0 59927 28800.000000 0       979395.407       529405.711     -6989627.391
10 0 59927 28980.000000 0      1051770.111      -827333.170     -6949716.856
10 0 59927 29160.000000 0      1051074.745     -2155248.557     -6657983.328
10 0 59927 29340.000000 0       978712.079     -3404606.118     -6124797.883
10 0 59927 29520.000000 0       839917.963     -4528443.397     -5369196.528
10 0 59927 29700.000000 0       643494.314     -5484325.092     -4418276.066
10 0 59927 29880.000000 0       401373.549     -6235971.045     -3306307.567
10 0 59927 30060.000000 0       128025.340     -6754696.429     -2073574.098
10 0 59927 30240.000000 0      -160270.682     -7020593.943      -764956.110
10 0 59927 30420.000000 0      -446256.048     -7023389.212       571697.920
10 0 59927 30600.000000 0      -712588.348     -6762910.778      1887349.613
10 0 59927 30780.000000 0      -942753.730     -6249143.743      3133623.260
10 0 59927 30960.000000 0     -1121945.524     -5501849.225      4264649.670
10 0 59927 31140.000000 0     -1237860.350     -4549766.909      5238804.696
10 0 59927 31320.000000 0     -1281372.608     -3429455.229      6020268.650
10 0 59927 31500.000000 0     -1247051.979     -2183822.728      6580351.233
10 0 59927 31680.000000 0     -1133497.751      -860426.204      6898525.473
10 0 59927 31860.000000 0      -943481.755       490382.791      6963156.400
10 0 59927 32040.000000 0      -683894.784      1817400.461      6771908.305
10 0 59927 32220.000000 0      -365491.322      3070531.635      6331823.008
10 0 59927 32400.000000 0        -2444.136      4202701.619      5659066.896
10 0 59927 32580.000000 0       388272.635      5171654.300      4778353.376
10 0 59927 32760.000000 0       787651.343      5941573.154      3722051.914
10 0 59927 32940.000000 0      1175535.683      6484455.280      2529006.016
10 0 59927 33120.000000 0      1531589.475      6781191.047      1243093.701
10 0 59927 33300.000000 0      1836295.537      6822269.725       -88431.845
10 0 59927 33480.000000 0      2071932.411      6608078.550     -1416730.563
99
